[{"OBJECT_NAME":"AEROCUBE 8C","OBJECT_ID":"2016-067F","EPOCH":"2026-03-09T13:42:34.002432","MEAN_MOTION":15.23097058,"ECCENTRICITY":0.0006461,"INCLINATION":98.0696,"RA_OF_ASC_NODE":288.5487,"ARG_OF_PERICENTER":53.7064,"MEAN_ANOMALY":306.4766,"EPHEMERIS_TYPE":0,"CLASSIFICATION_TYPE":"U","NORAD_CAT_ID":41853,"ELEMENT_SET_NO":999,"REV_AT_EPOCH":51089,"BSTAR":0.00041541,"MEAN_MOTION_DOT":9.726e-5,"MEAN_MOTION_DDOT":0},{"OBJECT_NAME":"OBJECT A","OBJECT_ID":"2025-180A","EPOCH":"2026-03-01T05:02:02.349888","MEAN_MOTION":15.19541211,"ECCENTRICITY":0.00119112,"INCLINATION":97.5026,"RA_OF_ASC_NODE":189.2879,"ARG_OF_PERICENTER":335.2896,"MEAN_ANOMALY":24.7766,"EPHEMERIS_TYPE":0,"CLASSIFICATION_TYPE":"U","NORAD_CAT_ID":65259,"ELEMENT_SET_NO":999,"REV_AT_EPOCH":2937,"BSTAR":0.0010883245,"MEAN_MOTION_DOT":0.00023159,"MEAN_MOTION_DDOT":0}]
