AEROCUBE 8C             
1 41853U 16067F   26068.57122688  .00009726  00000+0  41541-3 0  9993
2 41853  98.0696 288.5487 0006461  53.7064 306.4766 15.23097058510890
2025-180A               
1 65259U 25180A   26060.20974942  .00023159  00000+0  10883-2 0  9995
2 65259  97.5026 189.2879 0011911 335.2896  24.7766 15.19541211 29374
